CAS-2T & KS-1Q          
1 41847U 16066G   20346.41935819  .00000160  00000-0  33628-4 0  9991
2 41847  98.6308  38.4974 0366460  61.5311 302.2278 14.38124831214856
NAYIF-1 (EO-88)         
1 42017U 17008BX  20346.77018091  .00003536  00000-0  13533-3 0  9993
2 42017  97.3418  51.6065 0007494  62.9321 297.2682 15.27191516212603
ZHUHAI-1 02 (CAS-4B)    
1 42759U 17034B   20346.70963637  .00000452  00000-0  40748-4 0  9996
2 42759  43.0165 133.0545 0009474  60.6289  19.9974 15.09994145192765
ZHUHAI-1 01 (CAS-4A)    
1 42761U 17034D   20346.85094345  .00000472  00000-0  41905-4 0  9994
2 42761  43.0163 131.4620 0009751  63.2990  60.1043 15.10074427192789
MAX VALIER SAT          
1 42778U 17036P   20346.17219985  .00002170  00000-0  94917-4 0  9996
2 42778  97.2835  34.7240 0013644 117.2290 243.0339 15.23036204192624
RADFXSAT (FOX-1B)       
1 43017U 17073E   20346.43673097  .00000829  00000-0  69562-4 0  9998
2 43017  97.7167 251.7821 0255675 193.2534 166.1878 14.79206497165320
FOX-1D (AO-92)          
1 43137U 18004AC  20346.46555483  .00002568  00000-0  10699-3 0  9995
2 43137  97.4296  56.2897 0009909 145.2484 214.9403 15.24594698162015
DIWATA-2B               
1 43678U 18084H   20346.70223280  .00000460  00000-0  51516-4 0  9990
2 43678  97.9035 105.3161 0008946 318.6088  41.4473 14.91685977115446
ES'HAIL 2               
1 43700U 18090A   20346.37480008  .00000154  00000-0  00000+0 0  9996
2 43700   0.0148  35.7931 0001533 253.4731 312.0041  1.00271603  7721
FOX-1CLIFF (AO-95)      
1 43770U 18099N   20346.46907366  .00000895  00000-0  86701-4 0  9992
2 43770  97.6888  54.6001 0013610 331.0308  29.0156 14.95131455110366
ITASAT 1                
1 43786U 18099AE  20346.15916928  .00000767  00000-0  74472-4 0  9999
2 43786  97.6909  54.8423 0014171 325.4599  34.5700 14.95454411110343
JY1SAT (JO-97)          
1 43803U 18099AX  20346.15150938  .00001200  00000-0  11290-3 0  9991
2 43803  97.6869  54.6150 0014034 325.5853  34.4458 14.95659992110345
PSAT2 (NO-104)          
1 44354U 19036R   20346.55797543  .00024260  00000-0  34233-3 0  9991
2 44354  28.5290 294.4934 0347035  47.4075 315.5258 15.07970164 80537
BRICSAT2 (NO-103)       
1 44355U 19036S   20346.14007276  .00048035  00000-0  61048-3 0  9994
2 44355  28.5273 276.3305 0309386  76.9194 286.5740 15.17715196 80688
JAISAT-1                
1 44419U 19038F   20346.47601230  .00001934  00000-0  11227-3 0  9994
2 44419  97.5633 306.2651 0019841 238.5036 121.4256 15.13196728 79369
DUCHIFAT-3              
1 44854U 19089C   20346.66417204  .00000837  00000-0  73765-4 0  9997
2 44854  36.9641 130.9589 0008178  45.7863 314.3542 14.99244792 54909
RS-44 & BREEZE-KM R/B   
1 44909U 19096E   20346.44208288  .00000011  00000-0 -37216-5 0  9999
2 44909  82.5225 237.7045 0217439 172.4360 188.0113 12.79707685 44821
ORBITAL FACTORY 2 (OF-2)
1 45113U 19071C   20346.39084346  .00004034  00000-0  13052-3 0  9999
2 45113  51.6422 228.3500 0012057 338.1289  21.9177 15.34341441 48284
HUSKYSAT-1              
1 45119U 19071J   20346.41250033  .00004866  00000-0  15443-3 0  9995
2 45119  51.6418 227.7444 0011390 334.4489  25.5929 15.34482476 48284
BY70-2                  
1 45857U 20042B   20346.75717386  .00001705  00000-0  25162-3 0  9998
2 45857  98.0010  58.3811 0012494  99.7284 260.5330 14.76535391 23844
SALSAT                  
1 46495U 20068K   20346.56626640  .00001471  00000-0  11275-3 0  9996
2 46495  97.6758 279.3851 0017186 352.0029   8.0918 15.03292276 11107
BY70-3                  
1 46839U 20079N   20346.73079412  .00004252  00000-0  13817-3 0  9992
2 46839  97.2623  58.2718 0008162 148.9054 333.1532 15.32423297  5441
